SKYSAT-A                
1 39418U 13066C   26062.08514859  .00004555  00000+0  26551-3 0  9997
2 39418  97.3967 114.8336 0020651 324.6807  35.3055 15.12293304672442
SKYSAT-B                
1 40072U 14037D   26062.40728447  .00002656  00000+0  29826-3 0  9998
2 40072  98.3719  15.4435 0004192 260.3685  99.7057 14.87694698630233
SKYSAT-C1               
1 41601U 16040C   26062.04910447  .00011597  00000+0  35069-3 0  9996
2 41601  96.9708  99.5830 0004007  66.7763 293.3903 15.34346900541580
SKYSAT-C4               
1 41771U 16058B   26062.05010730  .00019171  00000+0  40663-3 0  9992
2 41771  96.9290  88.4551 0000910  78.4840 281.6512 15.45093504529062
SKYSAT-C5               
1 41772U 16058C   26062.36855820  .00010534  00000+0  32095-3 0  9998
2 41772  97.0626 107.7057 0001894  85.9369 274.2091 15.34142144527527
SKYSAT-C2               
1 41773U 16058D   26062.01384323  .00014743  00000+0  37737-3 0  9990
2 41773  97.0283  88.2301 0005346  83.0911 277.0944 15.39484683528701
SKYSAT-C3               
1 41774U 16058E   26062.02981861  .00023815  00000+0  45716-3 0  9998
2 41774  96.9184  97.1843 0001519 100.8409 259.3013 15.47964732529661
SKYSAT-C11              
1 42987U 17068A   26062.39879573  .00031411  00000+0  52387-3 0  9996
2 42987  97.4187 207.1776 0000752  86.7569 273.3769 15.51924937466800
SKYSAT-C10              
1 42988U 17068B   26062.33327470  .00013622  00000+0  43642-3 0  9993
2 42988  97.4325 198.4163 0001160  90.6134 269.5240 15.32490656466135
SKYSAT-C9               
1 42989U 17068C   26062.34018963  .00018056  00000+0  47410-3 0  9992
2 42989  97.4250 198.4064 0009672 153.7418 206.4320 15.38636065466462
SKYSAT-C8               
1 42990U 17068D   26062.32629176  .00006617  00000+0  20005-3 0  9997
2 42990  97.4350 197.8254 0001259 113.2685 246.8690 15.34560506466065
SKYSAT-C7               
1 42991U 17068E   26062.31616818  .00015294  00000+0  45912-3 0  9991
2 42991  97.4355 198.7983 0007382 123.3852 236.8098 15.34512004466129
SKYSAT-C6               
1 42992U 17068F   26062.36896773  .00013431  00000+0  42938-3 0  9993
2 42992  97.4389 199.1542 0003545 127.5584 232.5980 15.32557813466104
SKYSAT-C12              
1 43797U 18099AR  26062.02475598  .00019754  00000+0  41563-3 0  9990
2 43797  96.9381  89.7275 0004830 155.2688 204.8795 15.45314497405441
SKYSAT-C13              
1 43802U 18099AW  26062.37934176  .00088603  00000+0  58212-3 0  9995
2 43802  96.9419 110.0055 0003301 225.5468 134.5529 15.75447449406175
FLOCK 4Q-16             
1 58271U 23174R   26062.47146629  .00029810  00000+0  64525-3 0  9999
2 58271  97.3875 148.4980 0007915 177.9272 182.2011 15.44384269129233
FLOCK 4Q-11             
1 58273U 23174T   26062.22115570  .00028968  00000+0  61973-3 0  9992
2 58273  97.3914 148.7172 0007542 175.7597 184.3717 15.44738949129208
